[{"OBJECT_NAME":"STARLINK-31712","OBJECT_ID":"2024-071H","EPOCH":"2026-03-09T03:58:58.275264","MEAN_MOTION":15.27576127,"ECCENTRICITY":8.367e-5,"INCLINATION":42.9962,"RA_OF_ASC_NODE":354.1129,"ARG_OF_PERICENTER":63.8061,"MEAN_ANOMALY":296.2877,"EPHEMERIS_TYPE":0,"CLASSIFICATION_TYPE":"U","NORAD_CAT_ID":59491,"ELEMENT_SET_NO":999,"REV_AT_EPOCH":10799,"BSTAR":-0.00011946925,"MEAN_MOTION_DOT":-3.547e-5,"MEAN_MOTION_DDOT":0},{"OBJECT_NAME":"TIANPING-3A 02","OBJECT_ID":"2025-068A","EPOCH":"2026-03-09T20:54:34.712640","MEAN_MOTION":14.85842181,"ECCENTRICITY":0.02320093,"INCLINATION":43.0011,"RA_OF_ASC_NODE":213.5906,"ARG_OF_PERICENTER":358.6421,"MEAN_ANOMALY":1.3764,"EPHEMERIS_TYPE":0,"CLASSIFICATION_TYPE":"U","NORAD_CAT_ID":63432,"ELEMENT_SET_NO":999,"REV_AT_EPOCH":5060,"BSTAR":0.00038259976,"MEAN_MOTION_DOT":5.293e-5,"MEAN_MOTION_DDOT":0}]
